{"fetched_at":"2026-03-29T16:36:15Z","count":15609,"tles":[{"name":"STARLINK-35116","line1":"1 66078U 25235W   26087.89695296  .00018316  00000+0  62894-3 0  9991","line2":"2 66078  53.1597 155.9459 0001674  83.6659 276.4532 15.30203629 25863","category":"Starlink"}]}